STARLINK-32325          
1 61588U 24187Q   25253.17227402  .00001626  00000+0  67029-4 0  9994
2 61588  53.1587 183.6602 0001403 101.2342 258.8817 15.30195843 51448
STARLINK-32416          
1 61589U 24187R   25253.17748311  .00001787  00000+0  54657-4 0  9993
2 61589  53.1593 174.4501 0001641 110.8865 249.2315 15.39612156 51573
STARLINK-32413          
1 61590U 24187S   25253.18915784  .00001243  00000+0  54088-4 0  9991
2 61590  53.1589 183.7553 0001130  84.9154 275.1976 15.30188892 51448
STARLINK-32409          
1 61591U 24187T   25253.16853441  .00002054  00000+0  61340-4 0  9991
2 61591  53.1592 174.3939 0001138 119.4031 240.7088 15.39608673 51572
STARLINK-32422          
1 61592U 24187U   25252.94128607  .00001008  00000+0  35195-4 0  9993
2 61592  53.1602 175.1088 0001007 106.0002 254.1114 15.39609127 51545
STARLINK-32397          
1 61593U 24187V   25253.24234006  .00000096  00000+0  15389-4 0  9998
2 61593  53.1602 181.2458 0001547  99.4984 260.6191 15.30186350 51487
STARLINK-32302          
1 61621U 24191A   25253.25068014  .00002368  00000+0  95547-4 0  9998
2 61621  43.0013  93.2640 0001039 299.3940  60.6808 15.27576576 50691
STARLINK-32364          
1 61622U 24191B   25253.26096939  .00001166  00000+0  51887-4 0  9991
2 61622  43.0019  93.3362 0001130 278.3180  81.7543 15.27574143 49949
STARLINK-32331          
1 61623U 24191C   25253.27335282 -.00001064  00000+0 -29155-4 0  9992
2 61623  43.0080  96.9049 0000693 299.3556  60.7226 15.27565046 49905
STARLINK-32398          
1 61624U 24191D   25253.27252857  .00000796  00000+0  38467-4 0  9994
2 61624  43.0056  93.4287 0001147 278.0868  81.9853 15.27576299 49947
STARLINK-32365          
1 61625U 24191E   25253.25325701  .00000756  00000+0  36993-4 0  9990
2 61625  43.0030  93.2811 0001286 272.8057  87.2647 15.27573892 49943
STARLINK-32333          
1 61626U 24191F   25253.28487957 -.00011414  00000+0 -40520-3 0  9991
2 61626  43.0093  96.9895 0001639 277.3335  82.7330 15.27634076 49903
STARLINK-32399          
1 61627U 24191G   25252.25159714  .00001346  00000+0  58479-4 0  9999
2 61627  43.0055  91.7322 0001104 255.9008 104.1721 15.27551976 49872
STARLINK-32421          
1 61628U 24191H   25253.27895001  .00002293  00000+0  92817-4 0  9995
2 61628  43.0045  93.4772 0001618 278.2605  81.8063 15.27581251 49948
STARLINK-32403          
1 61629U 24191J   25253.26865982  .00003745  00000+0  14550-3 0  9990
2 61629  43.0049  93.3975 0001186 272.4449  87.6267 15.27591559 49941
STARLINK-32390          
1 61630U 24191K   25253.28668258 -.00000256  00000+0  22656-6 0  9995
2 61630  43.0037  93.5351 0001053 274.2287  85.8445 15.27566282 49946
