[{"OBJECT_NAME":"STARLINK-32325","OBJECT_ID":"2024-187Q","EPOCH":"2025-09-10T04:08:04.475328","MEAN_MOTION":15.30195843,"ECCENTRICITY":0.00014034,"INCLINATION":53.1587,"RA_OF_ASC_NODE":183.6602,"ARG_OF_PERICENTER":101.2342,"MEAN_ANOMALY":258.8817,"EPHEMERIS_TYPE":0,"CLASSIFICATION_TYPE":"U","NORAD_CAT_ID":61588,"ELEMENT_SET_NO":999,"REV_AT_EPOCH":5144,"BSTAR":6.7029222e-5,"MEAN_MOTION_DOT":1.626e-5,"MEAN_MOTION_DDOT":0},{"OBJECT_NAME":"STARLINK-32416","OBJECT_ID":"2024-187R","EPOCH":"2025-09-10T04:15:34.540704","MEAN_MOTION":15.39612156,"ECCENTRICITY":0.00016416,"INCLINATION":53.1593,"RA_OF_ASC_NODE":174.4501,"ARG_OF_PERICENTER":110.8865,"MEAN_ANOMALY":249.2315,"EPHEMERIS_TYPE":0,"CLASSIFICATION_TYPE":"U","NORAD_CAT_ID":61589,"ELEMENT_SET_NO":999,"REV_AT_EPOCH":5157,"BSTAR":5.4657159e-5,"MEAN_MOTION_DOT":1.787e-5,"MEAN_MOTION_DDOT":0},{"OBJECT_NAME":"STARLINK-32413","OBJECT_ID":"2024-187S","EPOCH":"2025-09-10T04:32:23.237376","MEAN_MOTION":15.30188892,"ECCENTRICITY":0.00011308,"INCLINATION":53.1589,"RA_OF_ASC_NODE":183.7553,"ARG_OF_PERICENTER":84.9154,"MEAN_ANOMALY":275.1976,"EPHEMERIS_TYPE":0,"CLASSIFICATION_TYPE":"U","NORAD_CAT_ID":61590,"ELEMENT_SET_NO":999,"REV_AT_EPOCH":5144,"BSTAR":5.4087967e-5,"MEAN_MOTION_DOT":1.243e-5,"MEAN_MOTION_DDOT":0},{"OBJECT_NAME":"STARLINK-32409","OBJECT_ID":"2024-187T","EPOCH":"2025-09-10T04:02:41.373024","MEAN_MOTION":15.39608673,"ECCENTRICITY":0.00011382,"INCLINATION":53.1592,"RA_OF_ASC_NODE":174.3939,"ARG_OF_PERICENTER":119.4031,"MEAN_ANOMALY":240.7088,"EPHEMERIS_TYPE":0,"CLASSIFICATION_TYPE":"U","NORAD_CAT_ID":61591,"ELEMENT_SET_NO":999,"REV_AT_EPOCH":5157,"BSTAR":6.1339982e-5,"MEAN_MOTION_DOT":2.054e-5,"MEAN_MOTION_DDOT":0},{"OBJECT_NAME":"STARLINK-32422","OBJECT_ID":"2024-187U","EPOCH":"2025-09-09T22:35:27.116448","MEAN_MOTION":15.39609127,"ECCENTRICITY":0.00010073,"INCLINATION":53.1602,"RA_OF_ASC_NODE":175.1088,"ARG_OF_PERICENTER":106.0002,"MEAN_ANOMALY":254.1114,"EPHEMERIS_TYPE":0,"CLASSIFICATION_TYPE":"U","NORAD_CAT_ID":61592,"ELEMENT_SET_NO":999,"REV_AT_EPOCH":5154,"BSTAR":3.5194674e-5,"MEAN_MOTION_DOT":1.008e-5,"MEAN_MOTION_DDOT":0},{"OBJECT_NAME":"STARLINK-32397","OBJECT_ID":"2024-187V","EPOCH":"2025-09-10T05:48:58.181184","MEAN_MOTION":15.3018635,"ECCENTRICITY":0.0001547,"INCLINATION":53.1602,"RA_OF_ASC_NODE":181.2458,"ARG_OF_PERICENTER":99.4984,"MEAN_ANOMALY":260.6191,"EPHEMERIS_TYPE":0,"CLASSIFICATION_TYPE":"U","NORAD_CAT_ID":61593,"ELEMENT_SET_NO":999,"REV_AT_EPOCH":5148,"BSTAR":1.5388678e-5,"MEAN_MOTION_DOT":9.6e-7,"MEAN_MOTION_DDOT":0},{"OBJECT_NAME":"STARLINK-32302","OBJECT_ID":"2024-191A","EPOCH":"2025-09-10T06:00:58.764096","MEAN_MOTION":15.27576576,"ECCENTRICITY":0.0001039,"INCLINATION":43.0013,"RA_OF_ASC_NODE":93.264,"ARG_OF_PERICENTER":299.394,"MEAN_ANOMALY":60.6808,"EPHEMERIS_TYPE":0,"CLASSIFICATION_TYPE":"U","NORAD_CAT_ID":61621,"ELEMENT_SET_NO":999,"REV_AT_EPOCH":5069,"BSTAR":9.5547192e-5,"MEAN_MOTION_DOT":2.368e-5,"MEAN_MOTION_DDOT":0},{"OBJECT_NAME":"STARLINK-32364","OBJECT_ID":"2024-191B","EPOCH":"2025-09-10T06:15:47.755296","MEAN_MOTION":15.27574143,"ECCENTRICITY":0.00011305,"INCLINATION":43.0019,"RA_OF_ASC_NODE":93.3362,"ARG_OF_PERICENTER":278.318,"MEAN_ANOMALY":81.7543,"EPHEMERIS_TYPE":0,"CLASSIFICATION_TYPE":"U","NORAD_CAT_ID":61622,"ELEMENT_SET_NO":999,"REV_AT_EPOCH":4994,"BSTAR":5.1887206e-5,"MEAN_MOTION_DOT":1.166e-5,"MEAN_MOTION_DDOT":0},{"OBJECT_NAME":"STARLINK-32331","OBJECT_ID":"2024-191C","EPOCH":"2025-09-10T06:33:37.683648","MEAN_MOTION":15.27565046,"ECCENTRICITY":6.93e-5,"INCLINATION":43.008,"RA_OF_ASC_NODE":96.9049,"ARG_OF_PERICENTER":299.3556,"MEAN_ANOMALY":60.7226,"EPHEMERIS_TYPE":0,"CLASSIFICATION_TYPE":"U","NORAD_CAT_ID":61623,"ELEMENT_SET_NO":999,"REV_AT_EPOCH":4990,"BSTAR":-2.9155262e-5,"MEAN_MOTION_DOT":-1.064e-5,"MEAN_MOTION_DDOT":0},{"OBJECT_NAME":"STARLINK-32398","OBJECT_ID":"2024-191D","EPOCH":"2025-09-10T06:32:26.468448","MEAN_MOTION":15.27576299,"ECCENTRICITY":0.00011478,"INCLINATION":43.0056,"RA_OF_ASC_NODE":93.4287,"ARG_OF_PERICENTER":278.0868,"MEAN_ANOMALY":81.9853,"EPHEMERIS_TYPE":0,"CLASSIFICATION_TYPE":"U","NORAD_CAT_ID":61624,"ELEMENT_SET_NO":999,"REV_AT_EPOCH":4994,"BSTAR":3.8467044e-5,"MEAN_MOTION_DOT":7.96e-6,"MEAN_MOTION_DDOT":0},{"OBJECT_NAME":"STARLINK-32365","OBJECT_ID":"2024-191E","EPOCH":"2025-09-10T06:04:41.405664","MEAN_MOTION":15.27573892,"ECCENTRICITY":0.00012868,"INCLINATION":43.003,"RA_OF_ASC_NODE":93.2811,"ARG_OF_PERICENTER":272.8057,"MEAN_ANOMALY":87.2647,"EPHEMERIS_TYPE":0,"CLASSIFICATION_TYPE":"U","NORAD_CAT_ID":61625,"ELEMENT_SET_NO":999,"REV_AT_EPOCH":4994,"BSTAR":3.699342e-5,"MEAN_MOTION_DOT":7.56e-6,"MEAN_MOTION_DDOT":0},{"OBJECT_NAME":"STARLINK-32333","OBJECT_ID":"2024-191F","EPOCH":"2025-09-10T06:50:13.594848","MEAN_MOTION":15.27634076,"ECCENTRICITY":0.00016395,"INCLINATION":43.0093,"RA_OF_ASC_NODE":96.9895,"ARG_OF_PERICENTER":277.3335,"MEAN_ANOMALY":82.733,"EPHEMERIS_TYPE":0,"CLASSIFICATION_TYPE":"U","NORAD_CAT_ID":61626,"ELEMENT_SET_NO":999,"REV_AT_EPOCH":4990,"BSTAR":-0.00040520307,"MEAN_MOTION_DOT":-0.00011414,"MEAN_MOTION_DDOT":0},{"OBJECT_NAME":"STARLINK-32399","OBJECT_ID":"2024-191G","EPOCH":"2025-09-09T06:02:17.992896","MEAN_MOTION":15.27551976,"ECCENTRICITY":0.00011043,"INCLINATION":43.0055,"RA_OF_ASC_NODE":91.7322,"ARG_OF_PERICENTER":255.9008,"MEAN_ANOMALY":104.1721,"EPHEMERIS_TYPE":0,"CLASSIFICATION_TYPE":"U","NORAD_CAT_ID":61627,"ELEMENT_SET_NO":999,"REV_AT_EPOCH":4987,"BSTAR":5.8479021e-5,"MEAN_MOTION_DOT":1.346e-5,"MEAN_MOTION_DDOT":0},{"OBJECT_NAME":"STARLINK-32421","OBJECT_ID":"2024-191H","EPOCH":"2025-09-10T06:41:41.280864","MEAN_MOTION":15.27581251,"ECCENTRICITY":0.00016188,"INCLINATION":43.0045,"RA_OF_ASC_NODE":93.4772,"ARG_OF_PERICENTER":278.2605,"MEAN_ANOMALY":81.8063,"EPHEMERIS_TYPE":0,"CLASSIFICATION_TYPE":"U","NORAD_CAT_ID":61628,"ELEMENT_SET_NO":999,"REV_AT_EPOCH":4994,"BSTAR":9.2817266e-5,"MEAN_MOTION_DOT":2.293e-5,"MEAN_MOTION_DDOT":0},{"OBJECT_NAME":"STARLINK-32403","OBJECT_ID":"2024-191J","EPOCH":"2025-09-10T06:26:52.208448","MEAN_MOTION":15.27591559,"ECCENTRICITY":0.00011862,"INCLINATION":43.0049,"RA_OF_ASC_NODE":93.3975,"ARG_OF_PERICENTER":272.4449,"MEAN_ANOMALY":87.6267,"EPHEMERIS_TYPE":0,"CLASSIFICATION_TYPE":"U","NORAD_CAT_ID":61629,"ELEMENT_SET_NO":999,"REV_AT_EPOCH":4994,"BSTAR":0.00014549512,"MEAN_MOTION_DOT":3.745e-5,"MEAN_MOTION_DDOT":0},{"OBJECT_NAME":"STARLINK-32390","OBJECT_ID":"2024-191K","EPOCH":"2025-09-10T06:52:49.374912","MEAN_MOTION":15.27566282,"ECCENTRICITY":0.00010534,"INCLINATION":43.0037,"RA_OF_ASC_NODE":93.5351,"ARG_OF_PERICENTER":274.2287,"MEAN_ANOMALY":85.8445,"EPHEMERIS_TYPE":0,"CLASSIFICATION_TYPE":"U","NORAD_CAT_ID":61630,"ELEMENT_SET_NO":999,"REV_AT_EPOCH":4994,"BSTAR":2.26561e-7,"MEAN_MOTION_DOT":-2.56e-6,"MEAN_MOTION_DDOT":0}]
